OBJECT_NAME,OBJECT_ID,EPOCH,MEAN_MOTION,ECCENTRICITY,INCLINATION,RA_OF_ASC_NODE,ARG_OF_PERICENTER,MEAN_ANOMALY,EPHEMERIS_TYPE,CLASSIFICATION_TYPE,NORAD_CAT_ID,ELEMENT_SET_NO,REV_AT_EPOCH,BSTAR,MEAN_MOTION_DOT,MEAN_MOTION_DDOT
IRIDIUM 138,2017-083B,2026-07-16T13:11:14.985600,14.34218955,.0002061,86.4000,309.4419,92.6647,267.4784,0,U,43071,999,44834,.42349E-4,.138E-5,0
IRIDIUM 116,2017-083C,2026-07-16T09:04:39.078912,14.34217961,.000249,86.3985,309.7989,98.0794,262.0685,0,U,43072,999,44835,.36226E-4,.121E-5,0
IRIDIUM 130,2017-083D,2026-07-16T13:20:23.379360,14.34218258,.0002294,86.3994,310.0029,100.7313,259.4141,0,U,43073,999,44832,.42023E-4,.137E-5,0
IRIDIUM 151,2017-083E,2026-07-16T09:22:55.208928,14.34218201,.0002273,86.3987,309.8521,95.0949,265.0506,0,U,43074,999,44832,.32991E-4,.112E-5,0
IRIDIUM 134,2017-083F,2026-07-16T08:37:15.201408,14.34217929,.0002227,86.3988,309.8736,95.2844,264.8606,0,U,43075,999,44828,.13464E-4,.57E-6,0
IRIDIUM 137,2017-083G,2026-07-16T17:17:51.273312,14.34218110,.0002712,86.3992,309.8163,93.0422,267.1084,0,U,43076,999,44840,.17776E-4,.7E-6,0
IRIDIUM 141,2017-083H,2026-07-16T13:47:47.148000,14.34217872,.0002184,86.3985,309.7060,93.5068,266.6378,0,U,43077,999,44838,.22774E-4,.84E-6,0
IRIDIUM 153,2017-083J,2026-07-16T10:58:27.397056,14.34217866,.0002126,86.3959,278.2342,94.9699,265.1740,0,U,43078,999,44947,.14816E-4,.61E-6,0
IRIDIUM 131,2017-083K,2026-07-16T08:28:07.161024,14.34218322,.0002226,86.3990,309.9867,94.3683,265.7768,0,U,43079,999,44828,.24205E-4,.88E-6,0
IRIDIUM 144,2018-030A,2026-07-16T06:06:11.405952,14.34218065,.0002392,86.3956,278.2475,96.4668,263.6800,0,U,43249,999,43430,.17699E-4,.69E-6,0
IRIDIUM 149,2018-030B,2026-07-16T14:37:39.421056,14.34218095,.0002251,86.3956,278.0656,93.3087,266.8366,0,U,43250,999,43437,.238E-4,.86E-6,0
IRIDIUM 157,2018-030C,2026-07-16T15:05:03.594912,14.34218381,.0002266,86.3959,278.1117,94.1885,265.9570,0,U,43251,999,43435,.43287E-4,.141E-5,0
IRIDIUM 140,2018-030D,2026-07-16T15:32:27.641760,14.34217991,.0002245,86.3957,278.1162,95.8058,264.3394,0,U,43252,999,43441,.44286E-4,.144E-5,0
IRIDIUM 145,2018-030E,2026-07-16T15:14:11.420160,14.34217566,.0002537,86.3955,278.0936,99.4157,260.7326,0,U,43253,999,43434,.30541E-4,.105E-5,0
IRIDIUM 146,2018-030F,2026-07-16T14:46:47.452800,14.34217578,.0002389,86.3959,278.1138,96.0786,264.0682,0,U,43254,999,43435,.15277E-4,.63E-6,0
IRIDIUM 148,2018-030G,2026-07-16T15:41:35.655360,14.34218363,.000234,86.3959,278.1412,93.1971,266.9493,0,U,43255,999,43439,.43774E-4,.142E-5,0
IRIDIUM 142,2018-030H,2026-07-16T14:55:55.456896,14.34218016,.0002461,86.3954,278.0424,96.4639,263.6837,0,U,43256,999,43435,.1868E-4,.72E-6,0
IRIDIUM 150,2018-030J,2026-07-16T15:50:43.336320,14.34216501,.000219,86.3958,278.1436,96.1057,264.0388,0,U,43257,999,43438,-.68643E-4,-.172E-5,0
IRIDIUM 143,2018-030K,2026-07-16T15:23:19.529664,14.34217766,.0002336,86.3962,278.2456,96.8392,263.3069,0,U,43258,999,43431,.24062E-4,.87E-6,0
IRIDIUM 161,2018-047C,2026-07-16T18:33:29.672640,14.43276159,.0002238,86.4460,76.0980,80.8662,279.2791,0,U,43478,999,42940,.39656E-4,.154E-5,0
IRIDIUM 152,2018-047D,2026-07-16T18:04:58.285632,14.34218453,.0002152,86.3934,75.9676,84.1865,275.9576,0,U,43479,999,42672,.13958E-4,.59E-6,0
IRIDIUM 147,2018-047E,2026-07-16T18:14:06.271584,14.34217420,.0002276,86.3937,75.9707,88.5156,271.6301,0,U,43480,999,42672,.18278E-4,.71E-6,0
IRIDIUM 110,2018-047F,2026-07-16T15:02:18.092256,14.34218974,.0002084,86.3938,76.1191,77.6802,282.4627,0,U,43481,999,42669,.44768E-4,.145E-5,0
IRIDIUM 162,2018-047G,2026-07-16T15:04:45.164928,14.43278914,.00022,86.4458,76.0492,87.1355,273.0098,0,U,43482,999,42937,.47005E-4,.178E-5,0
IRIDIUM 160,2018-061A,2026-07-16T15:24:46.431648,14.34217435,.000223,86.3939,44.4763,86.8473,273.2978,0,U,43569,999,41759,.38231E-4,.127E-5,0
IRIDIUM 166,2018-061B,2026-07-16T14:20:50.496288,14.34217755,.0002284,86.3938,44.4451,89.8451,270.3007,0,U,43570,999,41761,.83983E-5,.43E-6,0
IRIDIUM 158,2018-061C,2026-07-16T15:15:38.436192,14.34217970,.0002107,86.3938,44.4388,88.1381,272.0056,0,U,43571,999,41758,.17867E-4,.7E-6,0
IRIDIUM 165,2018-061D,2026-07-16T15:52:10.570944,14.34217225,.000228,86.3940,44.4751,90.6648,269.4810,0,U,43572,999,41761,.51223E-5,.34E-6,0
IRIDIUM 155,2018-061E,2026-07-16T14:57:22.468608,14.34217621,.0002135,86.3936,44.3592,89.7006,270.4435,0,U,43573,999,41757,.11956E-4,.53E-6,0
IRIDIUM 154,2018-061F,2026-07-16T14:29:58.458912,14.34217554,.0002304,86.3940,44.5020,89.9627,270.1832,0,U,43574,999,41762,.98759E-5,.47E-6,0
IRIDIUM 163,2018-061G,2026-07-16T14:02:34.521792,14.34217236,.0002112,86.3937,44.4242,86.0861,274.0576,0,U,43575,999,41759,.70058E-6,.22E-6,0
